CIC_OEM_VERS = 2.0
CREATION_DATE = 2025-03-13T18:04:14.027224
ORIGINATOR = ISAE-SUPAERO


META_START
OBJECT_NAME = BLUE1
OBJECT_ID = BLUE1
CENTER_NAME = Earth
REF_FRAME = EME2000
TIME_SYSTEM = UTC
START_TIME = 2025-03-13T21:55:01.270
USEABLE_START_TIME = 2025-03-13T21:55:01.270
USEABLE_STOP_TIME = 2025-03-13T23:59:31.270
STOP_TIME = 2025-03-13T23:59:31.270
INTERPOLATION = lagrange
INTERPOLATION_DEGREE = 5
META_STOP


60747 78901.27 23492.313000000002 6046.119900000001 6046.119900000001 -1.3656857 2.6531983 2.6531983
60747 78991.27 23366.929 6284.2617 6284.2615000000005 -1.4194825000000002 2.6390488 2.6390457
60747 79081.27 23236.767 6521.1191 6521.1185000000005 -1.4729872000000002 2.6243469 2.6243408
60747 79171.27 23101.802 6756.6283 6756.627 -1.5261873000000001 2.6091031 2.6090937
60747 79261.27 22962.063000000002 6990.741400000001 6990.7391 -1.5790719 2.5933201 2.5933074
60747 79351.27 22817.579 7223.4098 7223.4062 -1.6316300000000001 2.5770013 2.5769851
60747 79441.27 22668.38 7454.585599999999 7454.580400000001 -1.6838507999999999 2.56015 2.5601303
60747 79531.27 22514.496 7684.2210000000005 7684.2137999999995 -1.7357235000000002 2.5427697 2.5427462999999997
60747 79621.27 22355.96 7912.268400000001 7912.259 -1.7872374 2.524864 2.5248368
60747 79711.27 22192.804 8138.6809 8138.6688 -1.8383819000000001 2.5064366000000002 2.5064055
60747 79801.27 22025.063000000002 8363.4115 8363.396400000001 -1.8891463000000002 2.4874913000000003 2.4874563
60747 79891.27 21852.77 8586.413900000001 8586.3955 -1.9395202 2.4680321 2.467993
60747 79981.27 21675.961 8807.642 8807.6199 -1.9894931999999999 2.4480629 2.4480196000000003
60747 80071.27 21494.673 9027.050000000001 9027.0239 -2.0390549 2.4275879000000002 2.4275403
60747 80161.27 21308.944 9244.5927 9244.5621 -2.0881951 2.4066113000000002 2.4065593
60747 80251.27 21118.811 9460.2251 9460.1896 -2.1369038000000002 2.3851375 2.385081
60747 80341.27 20924.314000000002 9673.902699999999 9673.8619 -2.1851707 2.3631709 2.3631098
60747 80431.27 20725.494 9885.581199999999 9885.5347 -2.2329859 2.340716 2.3406502999999996
60747 80521.27 20522.391 10095.217 10095.164 -2.2803396 2.3177775 2.3177071000000002
60747 80611.27 20315.047 10302.767 10302.708 -2.3272219 2.2943601 2.2942848
60747 80701.27 20103.505 10508.188 10508.121000000001 -2.3736233 2.2704687 2.2703885
60747 80791.27 19887.81 10711.437 10711.363 -2.419534 2.2461082 2.246023
60747 80881.27 19668.004 10912.473 10912.392 -2.4649446 2.2212836000000005 2.2211934
60747 80971.27 19444.135000000002 11111.254 11111.165 -2.5098458 2.1960001000000005 2.1959047000000003
60747 81061.27 19216.248 11307.74 11307.641 -2.5542283 2.1702629000000004 2.1701623
60747 81151.27 18984.39 11501.888 11501.78 -2.5980828000000002 2.1440773 2.1439714
60747 81241.27 18748.609 11693.66 11693.542 -2.6414004 2.1174488 2.1173375
60747 81331.27 18508.954 11883.016 11882.888 -2.6841720000000002 2.0903828 2.090266
60747 81421.27 18265.474000000002 12069.916000000001 12069.777 -2.7263889 2.0628849000000002 2.0627626
60747 81511.27 18018.221 12254.322 12254.172 -2.7680423999999997 2.0349608 2.0348330000000003
60747 81601.27 17767.244 12436.197 12436.035 -2.8091237000000002 2.0066163 2.0064828
60747 81691.27 17512.596 12615.501 12615.327000000001 -2.8496246000000003 1.9778573 1.9777181000000001
60747 81781.27 17254.329 12792.199 12792.012 -2.8895365 1.9486896 1.9485447
60747 81871.27 16992.497 12966.253 12966.053 -2.9288512 1.9191194 1.9189686
60747 81961.27 16727.154 13137.628 13137.414 -2.9675607 1.8891527000000001 1.8889961000000002
60747 82051.27 16458.355 13306.289 13306.06 -3.0056569 1.8587957 1.8586332
60747 82141.27 16186.155 13472.2 13471.957 -3.0431319 1.8280547 1.8278862
60747 82231.27 15910.61 13635.327000000001 13635.069 -3.0799781 1.7969359999999999 1.7967615000000001
60747 82321.27 15631.778 13795.637 13795.363000000001 -3.1161878 1.7654461 1.7652656
60747 82411.27 15349.715 13953.097 13952.805 -3.1517535 1.7335915 1.7334049
60747 82501.27 15064.481 14107.673 14107.365 -3.1866678999999998 1.7013787 1.7011859999999999
60747 82591.27 14776.135 14259.334 14259.008 -3.2209238 1.6688145 1.6686156
60747 82681.27 14484.735 14408.049 14407.705 -3.2545140999999997 1.6359055 1.6357004
60747 82771.27 14190.342 14553.787 14553.424 -3.2874319 1.6026585 1.6024472
60747 82861.27 13893.018 14696.518 14696.136 -3.3196704 1.5690805 1.5688630000000001
60747 82951.27 13592.822 14836.212 14835.81 -3.3512228 1.5351783 1.5349545
60747 83041.27 13289.818000000001 14972.84 14972.418 -3.3820828 1.5009590000000002 1.5007289000000001
60747 83131.27 12984.068000000001 15106.375 15105.932 -3.4122439 1.4664295999999999 1.4661932
60747 83221.27 12675.636 15236.789 15236.324 -3.4416999 1.4315972 1.4313544999999999
60747 83311.27 12364.584 15364.054 15363.567000000001 -3.4704448 1.3964691 1.3962201
60747 83401.27 12050.977 15488.144 15487.635 -3.4984725 1.3610525 1.3607971
60747 83491.27 11734.880000000001 15609.035 15608.502 -3.5257773 1.3253547 1.325093
60747 83581.27 11416.359 15726.7 15726.143 -3.5523536 1.2893831 1.2891151
60747 83671.27 11095.479 15841.116 15840.535 -3.5781958 1.2531451999999998 1.2528708
60747 83761.27 10772.306 15952.258 15951.652 -3.6032987 1.2166483000000001 1.2163676
60747 83851.27 10446.907000000001 16060.105 16059.473 -3.6276571 1.1799001 1.179613
60747 83941.27 10119.35 16164.633 16163.975 -3.6512659 1.1429082000000002 1.1426148
60747 84031.27 9789.7022 16265.821 16265.137 -3.6741202 1.1056801 1.1053804
60747 84121.27 9458.0314 16363.649 16362.937 -3.6962154000000003 1.0682236 1.0679176
60747 84211.27 9124.4063 16458.095 16457.355 -3.7175468 1.0305464 1.0302341
60747 84301.27 8788.896 16549.141 16548.373 -3.7381101 0.99265631 0.99233771
60747 84391.27 8451.5697 16636.767 16635.97 -3.757901 0.9545611199999999 0.95423627
60747 84481.27 8112.4971 16720.956000000002 16720.129 -3.7769155000000003 0.9162687100000001 0.91593764
60747 84571.27 7771.7483 16801.69 16800.833 -3.7951496000000002 0.8777869899999999 0.87744973
60747 84661.27 7429.3937000000005 16878.952 16878.065 -3.8125994999999997 0.8391239100000001 0.83878048
60747 84751.27 7085.504 16952.727 16951.808 -3.8292615999999997 0.80028745 0.7999379
60747 84841.27 6740.1504 17022.999 17022.049 -3.8451325 0.7612856299999999 0.76092999
60747 84931.27 6393.404 17089.753 17088.771 -3.860209 0.72212651 0.72176483
60747 85021.27 6045.336700000001 17152.977 17151.962 -3.8744879 0.68281817 0.6824504899999999
60747 85111.27 5696.0202 17212.656 17211.608 -3.8879661999999997 0.64336874 0.64299509
60747 85201.27 5345.5268 17268.779 17267.697 -3.9006412 0.60378635 0.6034068
60747 85291.27 4993.929 17321.334 17320.217 -3.9125102000000003 0.56407918 0.5636937799999999
60747 85381.27 4641.2993 17370.31 17369.158 -3.9235709 0.52425544 0.52386424
60747 85471.27 4287.7105 17415.697 17414.510000000002 -3.9338209 0.48432335000000004 0.48392641
60747 85561.27 3933.2359 17457.485 17456.262 -3.9432579999999997 0.44429115 0.44388853
60747 85651.27 3577.9485 17495.667 17494.407 -3.9518804000000003 0.40416711 0.40375888
60747 85741.27 3221.9219 17530.233 17528.936 -3.9596863 0.36395951000000004 0.36354574
60747 85831.27 2865.2295 17561.177 17559.843 -3.9666740000000003 0.32367667 0.32325741
60747 85921.27 2507.9452 17588.493 17587.12 -3.9728422 0.28332689 0.28290224
60747 86011.27 2150.1426 17612.174 17610.763 -3.9781894 0.24291851 0.24248853
60747 86101.27 1791.8957 17632.217 17630.767 -3.9827147000000003 0.20245988 0.20202465
60747 86191.27 1433.2786 17648.616 17647.127 -3.9864171 0.16195935 0.16151896
60747 86281.27 1074.3654 17661.368 17659.839 -3.9892958 0.12142529 0.12097981000000001
60747 86371.27 715.23012 17670.471 17668.902000000002 -3.9913502 0.08086606 0.08041558600000001

